TIANMU-1 10             
1 57402U 23101D   26086.82627133  .00007148  00000+0  25386-3 0  9995
2 57402  97.2719 139.5738 0006527  86.2921 273.9066 15.29311033149206
FENGYUN 3F              
1 57490U 23111A   26086.86824973  .00000057  00000+0  47459-4 0  9996
2 57490  98.6890 158.3739 0000922  79.7854 280.3427 14.19923543137329
ARKTIKA-M 2             
1 58584U 23198A   26082.52027795  .00000173  00000+0  00000+0 0  9997
2 58584  63.2220 163.8934 6881218 267.7008  18.8555  2.00606565 16600
TIANMU-1 11             
1 58645U 23205A   26086.83862729  .00005671  00000+0  22248-3 0  9996
2 58645  97.3529 109.6960 0007194 296.8643  63.1860 15.26113829125117
TIANMU-1 12             
1 58646U 23205B   26086.80631852  .00006217  00000+0  24415-3 0  9990
2 58646  97.3517 109.4384 0005337 275.5645  84.4985 15.26046548125090
TIANMU-1 13             
1 58647U 23205C   26086.83661134  .00005723  00000+0  22465-3 0  9994
2 58647  97.3545 109.7151 0005768 250.6929 109.3686 15.26097685125097
TIANMU-1 14             
1 58648U 23205D   26086.82147715  .00005844  00000+0  22947-3 0  9997
2 58648  97.3480 108.9528 0006445 257.0955 102.9564 15.26071960125090
TIANMU-1 19             
1 58660U 23208A   26086.84586818  .00009543  00000+0  32909-3 0  9996
2 58660  97.4396 202.8586 0004092 231.7579 128.3293 15.30200877124889
TIANMU-1 20             
1 58661U 23208B   26086.81612113  .00009377  00000+0  31170-3 0  9996
2 58661  97.4338 203.3808 0006040 246.6956 113.3650 15.31386324124961
TIANMU-1 21             
1 58662U 23208C   26086.85577414  .00011343  00000+0  35287-3 0  9994
2 58662  97.4393 205.7651 0006091 240.0781 119.9857 15.33460860125091
TIANMU-1 22             
1 58663U 23208D   26086.80279497  .00008882  00000+0  31043-3 0  9990
2 58663  97.4393 202.8144 0002389 261.0231  99.0739 15.29789023124889
TIANMU-1 15             
1 58700U 24004A   26086.81910323  .00006046  00000+0  23730-3 0  9992
2 58700  97.4681 273.0371 0005638 275.7359  84.3236 15.26085469123367
TIANMU-1 16             
1 58701U 24004B   26086.86773965  .00006922  00000+0  27101-3 0  9996
2 58701  97.4624 272.3959 0004069 279.8403  80.2375 15.26123657123373
TIANMU-1 17             
1 58702U 24004C   26086.84965429  .00006510  00000+0  25482-3 0  9996
2 58702  97.4655 272.8400 0003290 281.6079  78.4790 15.26157674123364
TIANMU-1 18             
1 58703U 24004D   26086.83549019  .00006159  00000+0  24167-3 0  9997
2 58703  97.4672 273.0400 0002670 280.5984  79.4953 15.26098233123368
INSAT-3DS               
1 58990U 24033A   26086.84798419 -.00000175  00000+0  00000+0 0  9997
2 58990   0.0131 137.5243 0002042 226.6391 208.4550  1.00271602 46250
METEOR-M2 4             
1 59051U 24039A   26086.86784747  .00000040  00000+0  37732-4 0  9990
2 59051  98.6936  47.2233 0007972  50.7866 309.4018 14.22419992107704
