[{"OBJECT_NAME":"TIANMU-1 10","OBJECT_ID":"2023-101D","EPOCH":"2026-03-27T19:49:49.842912","MEAN_MOTION":15.29311033,"ECCENTRICITY":0.0006527,"INCLINATION":97.2719,"RA_OF_ASC_NODE":139.5738,"ARG_OF_PERICENTER":86.2921,"MEAN_ANOMALY":273.9066,"EPHEMERIS_TYPE":0,"CLASSIFICATION_TYPE":"U","NORAD_CAT_ID":57402,"ELEMENT_SET_NO":999,"REV_AT_EPOCH":14920,"BSTAR":0.00025386,"MEAN_MOTION_DOT":7.148e-5,"MEAN_MOTION_DDOT":0},{"OBJECT_NAME":"FENGYUN 3F","OBJECT_ID":"2023-111A","EPOCH":"2026-03-27T20:50:16.776672","MEAN_MOTION":14.19923543,"ECCENTRICITY":9.22e-5,"INCLINATION":98.689,"RA_OF_ASC_NODE":158.3739,"ARG_OF_PERICENTER":79.7854,"MEAN_ANOMALY":280.3427,"EPHEMERIS_TYPE":0,"CLASSIFICATION_TYPE":"U","NORAD_CAT_ID":57490,"ELEMENT_SET_NO":999,"REV_AT_EPOCH":13732,"BSTAR":4.7459e-5,"MEAN_MOTION_DOT":5.7e-7,"MEAN_MOTION_DDOT":0},{"OBJECT_NAME":"ARKTIKA-M 2","OBJECT_ID":"2023-198A","EPOCH":"2026-03-23T12:29:12.014880","MEAN_MOTION":2.00606565,"ECCENTRICITY":0.68812187,"INCLINATION":63.222,"RA_OF_ASC_NODE":163.8934,"ARG_OF_PERICENTER":267.7008,"MEAN_ANOMALY":18.8555,"EPHEMERIS_TYPE":0,"CLASSIFICATION_TYPE":"U","NORAD_CAT_ID":58584,"ELEMENT_SET_NO":999,"REV_AT_EPOCH":1660,"BSTAR":0,"MEAN_MOTION_DOT":1.73e-6,"MEAN_MOTION_DDOT":0},{"OBJECT_NAME":"TIANMU-1 11","OBJECT_ID":"2023-205A","EPOCH":"2026-03-27T20:07:37.397856","MEAN_MOTION":15.26113829,"ECCENTRICITY":0.0007194,"INCLINATION":97.3529,"RA_OF_ASC_NODE":109.696,"ARG_OF_PERICENTER":296.8643,"MEAN_ANOMALY":63.186,"EPHEMERIS_TYPE":0,"CLASSIFICATION_TYPE":"U","NORAD_CAT_ID":58645,"ELEMENT_SET_NO":999,"REV_AT_EPOCH":12511,"BSTAR":0.00022248,"MEAN_MOTION_DOT":5.671e-5,"MEAN_MOTION_DDOT":0},{"OBJECT_NAME":"TIANMU-1 12","OBJECT_ID":"2023-205B","EPOCH":"2026-03-27T19:21:05.920128","MEAN_MOTION":15.26046548,"ECCENTRICITY":0.0005337,"INCLINATION":97.3517,"RA_OF_ASC_NODE":109.4384,"ARG_OF_PERICENTER":275.5645,"MEAN_ANOMALY":84.4985,"EPHEMERIS_TYPE":0,"CLASSIFICATION_TYPE":"U","NORAD_CAT_ID":58646,"ELEMENT_SET_NO":999,"REV_AT_EPOCH":12509,"BSTAR":0.00024415,"MEAN_MOTION_DOT":6.217e-5,"MEAN_MOTION_DDOT":0},{"OBJECT_NAME":"TIANMU-1 13","OBJECT_ID":"2023-205C","EPOCH":"2026-03-27T20:04:43.219776","MEAN_MOTION":15.26097685,"ECCENTRICITY":0.0005768,"INCLINATION":97.3545,"RA_OF_ASC_NODE":109.7151,"ARG_OF_PERICENTER":250.6929,"MEAN_ANOMALY":109.3686,"EPHEMERIS_TYPE":0,"CLASSIFICATION_TYPE":"U","NORAD_CAT_ID":58647,"ELEMENT_SET_NO":999,"REV_AT_EPOCH":12509,"BSTAR":0.00022465,"MEAN_MOTION_DOT":5.723e-5,"MEAN_MOTION_DDOT":0},{"OBJECT_NAME":"TIANMU-1 14","OBJECT_ID":"2023-205D","EPOCH":"2026-03-27T19:42:55.625760","MEAN_MOTION":15.2607196,"ECCENTRICITY":0.0006445,"INCLINATION":97.348,"RA_OF_ASC_NODE":108.9528,"ARG_OF_PERICENTER":257.0955,"MEAN_ANOMALY":102.9564,"EPHEMERIS_TYPE":0,"CLASSIFICATION_TYPE":"U","NORAD_CAT_ID":58648,"ELEMENT_SET_NO":999,"REV_AT_EPOCH":12509,"BSTAR":0.00022947,"MEAN_MOTION_DOT":5.844e-5,"MEAN_MOTION_DDOT":0},{"OBJECT_NAME":"TIANMU-1 19","OBJECT_ID":"2023-208A","EPOCH":"2026-03-27T20:18:03.010752","MEAN_MOTION":15.30200877,"ECCENTRICITY":0.0004092,"INCLINATION":97.4396,"RA_OF_ASC_NODE":202.8586,"ARG_OF_PERICENTER":231.7579,"MEAN_ANOMALY":128.3293,"EPHEMERIS_TYPE":0,"CLASSIFICATION_TYPE":"U","NORAD_CAT_ID":58660,"ELEMENT_SET_NO":999,"REV_AT_EPOCH":12488,"BSTAR":0.00032909,"MEAN_MOTION_DOT":9.543e-5,"MEAN_MOTION_DDOT":0},{"OBJECT_NAME":"TIANMU-1 20","OBJECT_ID":"2023-208B","EPOCH":"2026-03-27T19:35:12.865632","MEAN_MOTION":15.31386324,"ECCENTRICITY":0.000604,"INCLINATION":97.4338,"RA_OF_ASC_NODE":203.3808,"ARG_OF_PERICENTER":246.6956,"MEAN_ANOMALY":113.365,"EPHEMERIS_TYPE":0,"CLASSIFICATION_TYPE":"U","NORAD_CAT_ID":58661,"ELEMENT_SET_NO":999,"REV_AT_EPOCH":12496,"BSTAR":0.0003117,"MEAN_MOTION_DOT":9.377e-5,"MEAN_MOTION_DDOT":0},{"OBJECT_NAME":"TIANMU-1 21","OBJECT_ID":"2023-208C","EPOCH":"2026-03-27T20:32:18.885696","MEAN_MOTION":15.3346086,"ECCENTRICITY":0.0006091,"INCLINATION":97.4393,"RA_OF_ASC_NODE":205.7651,"ARG_OF_PERICENTER":240.0781,"MEAN_ANOMALY":119.9857,"EPHEMERIS_TYPE":0,"CLASSIFICATION_TYPE":"U","NORAD_CAT_ID":58662,"ELEMENT_SET_NO":999,"REV_AT_EPOCH":12509,"BSTAR":0.00035287,"MEAN_MOTION_DOT":0.00011343,"MEAN_MOTION_DDOT":0},{"OBJECT_NAME":"TIANMU-1 22","OBJECT_ID":"2023-208D","EPOCH":"2026-03-27T19:16:01.485408","MEAN_MOTION":15.29789023,"ECCENTRICITY":0.0002389,"INCLINATION":97.4393,"RA_OF_ASC_NODE":202.8144,"ARG_OF_PERICENTER":261.0231,"MEAN_ANOMALY":99.0739,"EPHEMERIS_TYPE":0,"CLASSIFICATION_TYPE":"U","NORAD_CAT_ID":58663,"ELEMENT_SET_NO":999,"REV_AT_EPOCH":12488,"BSTAR":0.00031043,"MEAN_MOTION_DOT":8.882e-5,"MEAN_MOTION_DDOT":0},{"OBJECT_NAME":"TIANMU-1 15","OBJECT_ID":"2024-004A","EPOCH":"2026-03-27T19:39:30.519072","MEAN_MOTION":15.26085469,"ECCENTRICITY":0.0005638,"INCLINATION":97.4681,"RA_OF_ASC_NODE":273.0371,"ARG_OF_PERICENTER":275.7359,"MEAN_ANOMALY":84.3236,"EPHEMERIS_TYPE":0,"CLASSIFICATION_TYPE":"U","NORAD_CAT_ID":58700,"ELEMENT_SET_NO":999,"REV_AT_EPOCH":12336,"BSTAR":0.0002373,"MEAN_MOTION_DOT":6.046e-5,"MEAN_MOTION_DDOT":0},{"OBJECT_NAME":"TIANMU-1 16","OBJECT_ID":"2024-004B","EPOCH":"2026-03-27T20:49:32.705760","MEAN_MOTION":15.26123657,"ECCENTRICITY":0.0004069,"INCLINATION":97.4624,"RA_OF_ASC_NODE":272.3959,"ARG_OF_PERICENTER":279.8403,"MEAN_ANOMALY":80.2375,"EPHEMERIS_TYPE":0,"CLASSIFICATION_TYPE":"U","NORAD_CAT_ID":58701,"ELEMENT_SET_NO":999,"REV_AT_EPOCH":12337,"BSTAR":0.00027101,"MEAN_MOTION_DOT":6.922e-5,"MEAN_MOTION_DDOT":0},{"OBJECT_NAME":"TIANMU-1 17","OBJECT_ID":"2024-004C","EPOCH":"2026-03-27T20:23:30.130656","MEAN_MOTION":15.26157674,"ECCENTRICITY":0.000329,"INCLINATION":97.4655,"RA_OF_ASC_NODE":272.84,"ARG_OF_PERICENTER":281.6079,"MEAN_ANOMALY":78.479,"EPHEMERIS_TYPE":0,"CLASSIFICATION_TYPE":"U","NORAD_CAT_ID":58702,"ELEMENT_SET_NO":999,"REV_AT_EPOCH":12336,"BSTAR":0.00025482,"MEAN_MOTION_DOT":6.51e-5,"MEAN_MOTION_DDOT":0},{"OBJECT_NAME":"TIANMU-1 18","OBJECT_ID":"2024-004D","EPOCH":"2026-03-27T20:03:06.352416","MEAN_MOTION":15.26098233,"ECCENTRICITY":0.000267,"INCLINATION":97.4672,"RA_OF_ASC_NODE":273.04,"ARG_OF_PERICENTER":280.5984,"MEAN_ANOMALY":79.4953,"EPHEMERIS_TYPE":0,"CLASSIFICATION_TYPE":"U","NORAD_CAT_ID":58703,"ELEMENT_SET_NO":999,"REV_AT_EPOCH":12336,"BSTAR":0.00024167,"MEAN_MOTION_DOT":6.159e-5,"MEAN_MOTION_DDOT":0},{"OBJECT_NAME":"INSAT-3DS","OBJECT_ID":"2024-033A","EPOCH":"2026-03-27T20:21:05.834016","MEAN_MOTION":1.00271602,"ECCENTRICITY":0.0002042,"INCLINATION":0.0131,"RA_OF_ASC_NODE":137.5243,"ARG_OF_PERICENTER":226.6391,"MEAN_ANOMALY":208.455,"EPHEMERIS_TYPE":0,"CLASSIFICATION_TYPE":"U","NORAD_CAT_ID":58990,"ELEMENT_SET_NO":999,"REV_AT_EPOCH":4625,"BSTAR":0,"MEAN_MOTION_DOT":-1.75e-6,"MEAN_MOTION_DDOT":0},{"OBJECT_NAME":"METEOR-M2 4","OBJECT_ID":"2024-039A","EPOCH":"2026-03-27T20:49:42.021408","MEAN_MOTION":14.22419992,"ECCENTRICITY":0.0007972,"INCLINATION":98.6936,"RA_OF_ASC_NODE":47.2233,"ARG_OF_PERICENTER":50.7866,"MEAN_ANOMALY":309.4018,"EPHEMERIS_TYPE":0,"CLASSIFICATION_TYPE":"U","NORAD_CAT_ID":59051,"ELEMENT_SET_NO":999,"REV_AT_EPOCH":10770,"BSTAR":3.7732e-5,"MEAN_MOTION_DOT":4.0e-7,"MEAN_MOTION_DDOT":0}]
